{"fetched_at":"2026-05-08T17:17:12Z","count":3929,"tles":[{"name":"KINEIS-1E","line1":"1 60083U 24114E   26128.22941969 -.00002197  00000+0 -28109-3 0  9993","line2":"2 60083  97.9133 152.2560 0001881  24.9271 335.2032 14.80406367101475","category":"Other"},{"name":"KINEIS-1A","line1":"1 60084U 24114F   26128.06085138  .00000550  00000+0  78590-4 0  9992","line2":"2 60084  97.9103 152.2034 0002602 258.9506 101.1414 14.80518565101457","category":"Other"},{"name":"COSMOS 2547","line1":"1 46805U 20075A   26125.24171473  .00000033  00000+0  00000+0 0  9996","line2":"2 46805  64.5969 193.9081 0008440 236.6486 123.3485  2.13100494 42990","category":"Other"},{"name":"GAOFEN-3 02","line1":"1 49495U 21109A   26127.25460640  .00000168  00000+0  64301-4 0  9991","line2":"2 49495  98.4102 135.9316 0003874 103.0916 257.0706 14.42218734234414","category":"Other"},{"name":"SVOM","line1":"1 60089U 24116B   26128.13043975  .00001370  00000+0  14808-3 0  9992","line2":"2 60089  28.9969  10.6362 0005116 348.5684  11.4792 14.83452168101645","category":"Other"},{"name":"STARLINK-4518","line1":"1 53550U 22101Z   26038.82753975  .06506647  12306-4  62622-3 0  9990","line2":"2 53550  53.2002 174.8226 0005344 288.9680  71.0788 16.37628913192794","category":"Starlink"},{"name":"NORSAT-TD","line1":"1 56194U 23054S   23362.43217605  .00015486  00000+0  56442-3 0  9990","line2":"2 56194  97.3844 254.9653 0011446  57.1370 303.0970 15.28207509 39783","category":"Other"},{"name":"LEMUR-2-SAOIRSEDH5GUO","line1":"1 47453U 21006AS  23353.76724126  .07845664  24391-5  19059-2 0  9993","line2":"2 47453  97.3523  60.6700 0008123 285.1424  74.8971 16.29339768161663","category":"Other"},{"name":"FLOCK 4S-38","line1":"1 47512C 21006DD  23256.33907407  .00052261  00000-0  14326-2 0  2569","line2":"2 47512  97.3864 315.5526 0006353 138.3824 156.3595 15.37273382    17","category":"Other"},{"name":"VESTA-1","line1":"1 43781U 18099Z   26008.46972331  .07640871  24735-5  16013-2 0  9993","line2":"2 43781  97.4061  84.7922 0008915 295.0841  64.9528 16.30902669390149","category":"Other"},{"name":"LEMUR-2-BEAUDACIOUS","line1":"1 44085U 19018H   23180.17118463  .04461230  23754-5  12005-2 0  9991","line2":"2 44085  97.2245 249.1901 0014414 255.4875 104.4819 16.27978719237015","category":"Other"},{"name":"DELFI-PQ","line1":"1 51074U 22002CU  24005.88590013  .06428701  24679-5  17824-2 0  9993","line2":"2 51074  97.4068  91.1407 0008956 287.4539  72.5774 16.27848290110484","category":"Other"},{"name":"OP15 FLT2 (TYVAK-0821)","line1":"1 52735U 22057D   24252.65078743  .04710787  25610-5  14953-2 0  9990","line2":"2 52735  97.5512  30.3296 0013102 277.1894  82.7908 16.26154413127974","category":"Other"},{"name":"HADES","line1":"1 51080U 22002DA  23361.46352837  .00061090  00000+0  13253-2 0  9994","line2":"2 51080  97.4382  74.2272 0006731 292.5054  67.5481 15.44163905108544","category":"Other"},{"name":"FOSSASAT-2E3","line1":"1 50990U 22002G   23251.84180079  .09150295  24413-5  27290-2 0  9991","line2":"2 50990  97.3351 329.6967 0016744 284.4245  75.5189 16.26701966 92297","category":"Other"},{"name":"GAOFEN-2","line1":"1 40118U 14049A   26128.17572500 -.00000042  00000+0  15148-5 0  9998","line2":"2 40118  98.0124 192.4170 0007638  14.0843 346.0581 14.80855794633312","category":"Other"},{"name":"FLOCK 4V-14","line1":"1 46286U 20061Q   24324.73006425  .13633800  23754-5  13272-2 0  9994","line2":"2 46286  97.3185  43.3916 0008029 316.5057  43.5608 16.38351487234194","category":"Other"},{"name":"EASAT-2","line1":"1 51081U 22002DB  23361.99504785  .00057714  00000+0  12258-2 0  9996","line2":"2 51081  97.4367  74.8150 0006787 288.8526  71.1986 15.44806084108635","category":"Other"},{"name":"FENGYUN 3C","line1":"1 39260U 13052A   26128.18377591  .00000092  00000+0  67566-4 0  9995","line2":"2 39260  98.4961 103.9016 0015444 135.1136 225.1291 14.15745659652908","category":"Weather"},{"name":"COSMOS 2542","line1":"1 44797U 19079A   23297.23228983  .16154547  26690-5  82721-3 0  9991","line2":"2 44797  97.6189  44.3452 0008269 277.8821 166.3779 16.42095543216406","category":"Other"},{"name":"NUSAT-42 (M WONENBURGER)","line1":"1 56966U 23084AL  26128.18951686  .00020084  00000+0  44700-3 0  9993","line2":"2 56966  97.5674 270.6325 0006101  44.1054 316.0679 15.43653704161900","category":"Other"},{"name":"UMKA 1 (RS40S)","line1":"1 57172U 23091G   26128.14916580  .00004687  00000+0  21822-3 0  9992","line2":"2 57172  97.5073 187.0089 0011311 257.0032 102.9940 15.20367078157922","category":"Other"},{"name":"FLOCK 4V-6","line1":"1 46289U 20061T   23361.71987693  .00038500  00000+0  13657-2 0  9992","line2":"2 46289  97.3871  68.4173 0002429 126.1226 234.0239 15.28963259183355","category":"Other"},{"name":"FLOCK 4V-5","line1":"1 46290U 20061U   23361.86953107  .00216572  00000+0  31807-2 0  9997","line2":"2 46290  97.3716  68.6053 0000840 285.2238  74.8923 15.54734614183393","category":"Other"},{"name":"HADES-ICM","line1":"1 63492U 25052BN  26128.19489132  .00613396  14573-3  21997-2 0  9995","line2":"2 63492  97.3769  31.8853 0007091 159.6656 200.4900 15.88728250 64472","category":"Other"},{"name":"TEVEL2-3","line1":"1 63218U 25052J   26128.16610823  .00013684  00000+0  43677-3 0  9991","line2":"2 63218  97.3916  24.1579 0000557 243.1609 116.9576 15.32606381 63961","category":"Other"},{"name":"BEIDOU-2 G3","line1":"1 36590U 10024A   26127.91786910 -.00000125  00000+0  00000+0 0  9996","line2":"2 36590   4.4209  61.6719 0009013 343.0984 230.9933  1.00269958 58369","category":"GPS"},{"name":"GSAT0216 (GALILEO 20)","line1":"1 43056U 17079B   26126.65948139  .00000007  00000+0  00000+0 0  9999","line2":"2 43056  55.0842 222.6494 0002624 280.0580  79.9541  1.70474819 52294","category":"GPS"},{"name":"GSAT0207 (GALILEO 15)","line1":"1 41859U 16069A   26126.68442161  .00000038  00000+0  00000+0 0  9997","line2":"2 41859  55.4733 102.2336 0005890 319.6391  40.2855  1.70474045 58691","category":"GPS"},{"name":"GSAT0222 (GALILEO 26)","line1":"1 43565U 18060B   26127.81030745 -.00000069  00000+0  00000+0 0  9998","line2":"2 43565  57.1853 342.8747 0002082 283.3103  76.7048  1.70475636 48521","category":"GPS"},{"name":"BEIDOU-2 G4","line1":"1 37210U 10057A   26127.64855781 -.00000103  00000+0  00000+0 0  9991","line2":"2 37210   3.5469  69.1704 0005663 214.0887 335.6729  1.00273401 56889","category":"GPS"},{"name":"COSMOS 2424 (715)","line1":"1 29672U 06062C   08023.88315278 -.00000014  00000-0  10000-3 0  3393","line2":"2 29672  65.0577  60.3196 0016964 177.1506 248.6178  2.13103908  8399","category":"Other"},{"name":"GPS BIIR-18M","line1":"1 32384U 07062A   26126.59035670 -.00000021  00000+0  00000+0 0  9999","line2":"2 32384  55.0667 275.8238 0034829 162.9642 142.8643  2.00557618134675","category":"GPS"},{"name":"GPS BIIF-6","line1":"1 39741U 14026A   26127.07769304 -.00000067  00000+0  00000+0 0  9993","line2":"2 39741  56.5173 333.1182 0038730 326.8408  32.9456  2.00564166 87718","category":"GPS"},{"name":"GSAT0217 (GALILEO 21)","line1":"1 43057U 17079C   26125.70710091  .00000005  00000+0  00000+0 0  9997","line2":"2 43057  55.0843 222.6734 0002739 295.9806  64.0315  1.70474866 52269","category":"GPS"},{"name":"GSAT0211 (GALILEO 14)","line1":"1 41549U 16030A   26127.90873862  .00000007  00000+0  00000+0 0  9999","line2":"2 41549  55.1070 222.8027 0002541 347.1907  12.8437  1.70474234 61980","category":"GPS"},{"name":"GPS BIIF-7","line1":"1 40105U 14045A   26127.66718094  .00000028  00000+0  00000+0 0  9991","line2":"2 40105  55.3275  90.0784 0031910 118.9316 241.3668  2.00555808 85264","category":"GPS"},{"name":"CARTOSAT-2 (IRS-P7)","line1":"1 29710U 07001B   24045.26546296  .15373921  28539-5  20784-3 0  9999","line2":"2 29710  97.8588 219.0513 0007525 281.0118  81.3478 16.49055820930314","category":"Other"},{"name":"GPS BIIR-11","line1":"1 28190U 04009A   26126.75450333 -.00000022  00000+0  00000+0 0  9993","line2":"2 28190  54.8654 277.3603 0114190 171.2682   6.3390  2.00556160162112","category":"GPS"},{"name":"GSAT0218 (GALILEO 22)","line1":"1 43058U 17079D   26125.92716439  .00000006  00000+0  00000+0 0  9995","line2":"2 43058  55.0839 222.6650 0003903 275.9093  84.0870  1.70474930 52295","category":"GPS"},{"name":"GSAT0213 (GALILEO 17)","line1":"1 41861U 16069C   26125.14546651  .00000030  00000+0  00000+0 0  9991","line2":"2 41861  55.4725 102.2790 0005790 303.9672  55.9420  1.70474575 58785","category":"GPS"},{"name":"GPS BIIF-3","line1":"1 38833U 12053A   26127.43378578  .00000062  00000+0  00000+0 0  9995","line2":"2 38833  53.5774 145.2690 0178368  65.2465 296.6417  2.00566884 98625","category":"GPS"},{"name":"GSAT0210 (GALILEO 13)","line1":"1 41550U 16030B   26127.57943157  .00000007  00000+0  00000+0 0  9999","line2":"2 41550  55.1073 222.8097 0002188 207.5971 152.4325  1.70474259 61972","category":"GPS"},{"name":"GSAT0220 (GALILEO 24)","line1":"1 43567U 18060D   26127.66565634 -.00000069  00000+0  00000+0 0  9993","line2":"2 43567  57.1829 342.8806 0002921 338.4792  21.5469  1.70475952 48481","category":"GPS"},{"name":"NAVSTAR 49 (USA 154)","line1":"1 26605U 00071A   26126.18645241  .00000024  00000+0  00000+0 0  9999","line2":"2 26605  55.6029  96.6123 0174367 266.4051 215.0273  2.00567628186671","category":"GPS"},{"name":"GPS BIII-2","line1":"1 44506U 19056A   26128.00310898 -.00000063  00000+0  00000+0 0  9996","line2":"2 44506  55.6548 332.7402 0060038 197.3091 334.4498  2.00569550 49260","category":"GPS"},{"name":"BEIDOU-2 M6","line1":"1 38775U 12050B   26127.02200532 -.00000027  00000+0  00000+0 0  9998","line2":"2 38775  56.5101  64.2551 0014401 350.3716   9.5855  1.86231041 92546","category":"GPS"},{"name":"COSMOS 2434 [GLONASS-M]","line1":"1 32393U 07065A   26128.16975312  .00000029  00000+0  00000+0 0  9990","line2":"2 32393  64.3158 193.2655 0001355  53.1564 305.0560  2.13101569142912","category":"GPS"}]}